IRIDIUM 159             
1 43578U 18061K   24279.80132396  .00000291  00000+0  97008-4 0  9998
2 43578  86.3950 315.5644 0002190  92.8746 267.2700 14.34218038324609
IRIDIUM 180             
1 43922U 19002A   24279.87057421  .00001025  00000+0  35902-3 0  9999
2 43922  86.3930 252.3628 0002149  80.0325 280.1113 14.34212950300261
IRIDIUM 176             
1 43923U 19002B   24279.63332717  .00006818  00000+0  10771-2 0  9999
2 43923  86.6059 252.4736 0002339  85.0763 275.0721 14.72229614308094
IRIDIUM 168             
1 43924U 19002C   24279.86423553  .00000902  00000+0  31479-3 0  9991
2 43924  86.3932 252.4247 0002273  85.4234 274.7221 14.34225807300207
IRIDIUM 173             
1 43925U 19002D   24279.85155639  .00001355  00000+0  47674-3 0  9995
2 43925  86.3928 252.3444 0002171  83.3093 276.8349 14.34224419300187
IRIDIUM 169             
1 43926U 19002E   24279.51032228  .00000508  00000+0  15965-3 0  9994
2 43926  86.4161 284.1370 0001528 146.1962 213.9334 14.38608999301132
IRIDIUM 172             
1 43927U 19002F   24279.84521642  .00000807  00000+0  28093-3 0  9992
2 43927  86.3928 252.3530 0002314  87.7578 272.3882 14.34221143300195
IRIDIUM 175             
1 43928U 19002G   24279.83175300  .00006486  00000+0  10237-2 0  9997
2 43928  86.1541 219.3065 0002432  91.2881 268.8614 14.72262257308115
